CCSDS_OMM_VERS = 2.0
CREATION_DATE  = 
ORIGINATOR     = 

OBJECT_NAME    = STARLINK-36059
OBJECT_ID      = 2025-283AC
CENTER_NAME    = EARTH
REF_FRAME      = TEME
TIME_SYSTEM    = UTC
MEAN_ELEMENT_THEORY = SGP/SGP4

EPOCH          = 2025-12-26T14:00:04.000032
MEAN_MOTION    = 15.55979670
ECCENTRICITY   = .00010899
INCLINATION    = 53.1589
RA_OF_ASC_NODE = 4.8901
ARG_OF_PERICENTER = 66.2807
MEAN_ANOMALY   = 342.1494

EPHEMERIS_TYPE = 0
CLASSIFICATION_TYPE = U
NORAD_CAT_ID   = 66904
ELEMENT_SET_NO = 999
REV_AT_EPOCH   = 465
BSTAR          = -.32064953E-1
MEAN_MOTION_DOT = -.2027853E-1
MEAN_MOTION_DDOT = 0

CCSDS_OMM_VERS = 2.0
CREATION_DATE  = 
ORIGINATOR     = 

OBJECT_NAME    = STARLINK-36075
OBJECT_ID      = 2025-283AD
CENTER_NAME    = EARTH
REF_FRAME      = TEME
TIME_SYSTEM    = UTC
MEAN_ELEMENT_THEORY = SGP/SGP4

EPOCH          = 2025-12-26T14:00:04.000032
MEAN_MOTION    = 15.55980600
ECCENTRICITY   = .00009142
INCLINATION    = 53.1588
RA_OF_ASC_NODE = 4.8867
ARG_OF_PERICENTER = 81.6792
MEAN_ANOMALY   = 328.6701

EPHEMERIS_TYPE = 0
CLASSIFICATION_TYPE = U
NORAD_CAT_ID   = 66905
ELEMENT_SET_NO = 999
REV_AT_EPOCH   = 465
BSTAR          = -.32093931E-1
MEAN_MOTION_DOT = -.202945E-1
MEAN_MOTION_DDOT = 0

CCSDS_OMM_VERS = 2.0
CREATION_DATE  = 
ORIGINATOR     = 

OBJECT_NAME    = 1998-067XS
OBJECT_ID      = 1998-067XS
CENTER_NAME    = EARTH
REF_FRAME      = TEME
TIME_SYSTEM    = UTC
MEAN_ELEMENT_THEORY = SGP/SGP4

EPOCH          = 2025-12-26T10:53:34.755072
MEAN_MOTION    = 15.51311404
ECCENTRICITY   = .00026478
INCLINATION    = 51.6324
RA_OF_ASC_NODE = 74.3703
ARG_OF_PERICENTER = 272.6697
MEAN_ANOMALY   = 87.3989

EPHEMERIS_TYPE = 0
CLASSIFICATION_TYPE = U
NORAD_CAT_ID   = 66906
ELEMENT_SET_NO = 999
REV_AT_EPOCH   = 374
BSTAR          = .44869141E-3
MEAN_MOTION_DOT = .26457E-3
MEAN_MOTION_DDOT = 0

CCSDS_OMM_VERS = 2.0
CREATION_DATE  = 
ORIGINATOR     = 

OBJECT_NAME    = 1998-067XT
OBJECT_ID      = 1998-067XT
CENTER_NAME    = EARTH
REF_FRAME      = TEME
TIME_SYSTEM    = UTC
MEAN_ELEMENT_THEORY = SGP/SGP4

EPOCH          = 2025-12-26T12:05:04.890912
MEAN_MOTION    = 15.53165234
ECCENTRICITY   = .00038158
INCLINATION    = 51.6314
RA_OF_ASC_NODE = 73.9516
ARG_OF_PERICENTER = 309.8326
MEAN_ANOMALY   = 50.2329

EPHEMERIS_TYPE = 0
CLASSIFICATION_TYPE = U
NORAD_CAT_ID   = 66907
ELEMENT_SET_NO = 999
REV_AT_EPOCH   = 375
BSTAR          = .96731691E-3
MEAN_MOTION_DOT = .61851E-3
MEAN_MOTION_DDOT = 0

CCSDS_OMM_VERS = 2.0
CREATION_DATE  = 
ORIGINATOR     = 

OBJECT_NAME    = 1998-067XU
OBJECT_ID      = 1998-067XU
CENTER_NAME    = EARTH
REF_FRAME      = TEME
TIME_SYSTEM    = UTC
MEAN_ELEMENT_THEORY = SGP/SGP4

EPOCH          = 2025-12-26T12:03:26.030304
MEAN_MOTION    = 15.53224138
ECCENTRICITY   = .00038598
INCLINATION    = 51.6314
RA_OF_ASC_NODE = 73.9431
ARG_OF_PERICENTER = 307.9643
MEAN_ANOMALY   = 52.0999

EPHEMERIS_TYPE = 0
CLASSIFICATION_TYPE = U
NORAD_CAT_ID   = 66908
ELEMENT_SET_NO = 999
REV_AT_EPOCH   = 375
BSTAR          = .89246936E-3
MEAN_MOTION_DOT = .57117E-3
MEAN_MOTION_DDOT = 0

CCSDS_OMM_VERS = 2.0
CREATION_DATE  = 
ORIGINATOR     = 

OBJECT_NAME    = SILVERSAT
OBJECT_ID      = 1998-067XV
CENTER_NAME    = EARTH
REF_FRAME      = TEME
TIME_SYSTEM    = UTC
MEAN_ELEMENT_THEORY = SGP/SGP4

EPOCH          = 2025-12-26T12:00:46.912608
MEAN_MOTION    = 15.53512588
ECCENTRICITY   = .00037731
INCLINATION    = 51.6312
RA_OF_ASC_NODE = 73.9315
ARG_OF_PERICENTER = 313.4073
MEAN_ANOMALY   = 46.6603

EPHEMERIS_TYPE = 0
CLASSIFICATION_TYPE = U
NORAD_CAT_ID   = 66909
ELEMENT_SET_NO = 999
REV_AT_EPOCH   = 375
BSTAR          = .10737482E-2
MEAN_MOTION_DOT = .69652E-3
MEAN_MOTION_DDOT = 0

CCSDS_OMM_VERS = 2.0
CREATION_DATE  = 
ORIGINATOR     = 

OBJECT_NAME    = 1998-067XW
OBJECT_ID      = 1998-067XW
CENTER_NAME    = EARTH
REF_FRAME      = TEME
TIME_SYSTEM    = UTC
MEAN_ELEMENT_THEORY = SGP/SGP4

EPOCH          = 2025-12-26T15:03:47.087712
MEAN_MOTION    = 15.53433211
ECCENTRICITY   = .00037023
INCLINATION    = 51.6299
RA_OF_ASC_NODE = 73.2784
ARG_OF_PERICENTER = 284.4746
MEAN_ANOMALY   = 75.5833

EPHEMERIS_TYPE = 0
CLASSIFICATION_TYPE = U
NORAD_CAT_ID   = 66910
ELEMENT_SET_NO = 999
REV_AT_EPOCH   = 377
BSTAR          = .10494824E-2
MEAN_MOTION_DOT = .67854E-3
MEAN_MOTION_DDOT = 0

CCSDS_OMM_VERS = 2.0
CREATION_DATE  = 
ORIGINATOR     = 

OBJECT_NAME    = 1998-067XX
OBJECT_ID      = 1998-067XX
CENTER_NAME    = EARTH
REF_FRAME      = TEME
TIME_SYSTEM    = UTC
MEAN_ELEMENT_THEORY = SGP/SGP4

EPOCH          = 2025-12-26T11:52:19.081920
MEAN_MOTION    = 15.53969141
ECCENTRICITY   = .00034926
INCLINATION    = 51.6301
RA_OF_ASC_NODE = 73.8915
ARG_OF_PERICENTER = 292.7420
MEAN_ANOMALY   = 67.3201

EPHEMERIS_TYPE = 0
CLASSIFICATION_TYPE = U
NORAD_CAT_ID   = 66911
ELEMENT_SET_NO = 999
REV_AT_EPOCH   = 374
BSTAR          = .11708767E-2
MEAN_MOTION_DOT = .77346E-3
MEAN_MOTION_DDOT = 0

CCSDS_OMM_VERS = 2.0
CREATION_DATE  = 
ORIGINATOR     = 

OBJECT_NAME    = 1998-067XY
OBJECT_ID      = 1998-067XY
CENTER_NAME    = EARTH
REF_FRAME      = TEME
TIME_SYSTEM    = UTC
MEAN_ELEMENT_THEORY = SGP/SGP4

EPOCH          = 2025-12-26T12:12:45.085824
MEAN_MOTION    = 15.52489248
ECCENTRICITY   = .00038231
INCLINATION    = 51.6314
RA_OF_ASC_NODE = 73.9869
ARG_OF_PERICENTER = 301.1826
MEAN_ANOMALY   = 58.8789

EPHEMERIS_TYPE = 0
CLASSIFICATION_TYPE = U
NORAD_CAT_ID   = 66912
ELEMENT_SET_NO = 999
REV_AT_EPOCH   = 374
BSTAR          = .78444064E-3
MEAN_MOTION_DOT = .48771E-3
MEAN_MOTION_DDOT = 0

CCSDS_OMM_VERS = 2.0
CREATION_DATE  = 
ORIGINATOR     = 

OBJECT_NAME    = 2025-284A
OBJECT_ID      = 2025-284A
CENTER_NAME    = EARTH
REF_FRAME      = TEME
TIME_SYSTEM    = UTC
MEAN_ELEMENT_THEORY = SGP/SGP4

EPOCH          = 2025-12-23T02:34:46.438752
MEAN_MOTION    = 15.08893564
ECCENTRICITY   = .0013475
INCLINATION    = 80.4035
RA_OF_ASC_NODE = 116.7336
ARG_OF_PERICENTER = 259.6514
MEAN_ANOMALY   = 100.3189

EPHEMERIS_TYPE = 0
CLASSIFICATION_TYPE = U
NORAD_CAT_ID   = 66913
ELEMENT_SET_NO = 999
REV_AT_EPOCH   = 269
BSTAR          = .55263602E-3
MEAN_MOTION_DOT = .8748E-4
MEAN_MOTION_DDOT = 0

CCSDS_OMM_VERS = 2.0
CREATION_DATE  = 
ORIGINATOR     = 

OBJECT_NAME    = 2025-284B
OBJECT_ID      = 2025-284B
CENTER_NAME    = EARTH
REF_FRAME      = TEME
TIME_SYSTEM    = UTC
MEAN_ELEMENT_THEORY = SGP/SGP4

EPOCH          = 2025-12-16T06:51:11.417184
MEAN_MOTION    = 15.18985981
ECCENTRICITY   = .00081793
INCLINATION    = 80.4045
RA_OF_ASC_NODE = 125.2713
ARG_OF_PERICENTER = 234.9626
MEAN_ANOMALY   = 125.0834

EPHEMERIS_TYPE = 0
CLASSIFICATION_TYPE = U
NORAD_CAT_ID   = 66914
ELEMENT_SET_NO = 999
REV_AT_EPOCH   = 166
BSTAR          = .38444995E-3
MEAN_MOTION_DOT = .8068E-4
MEAN_MOTION_DDOT = 0

CCSDS_OMM_VERS = 2.0
CREATION_DATE  = 
ORIGINATOR     = 

OBJECT_NAME    = HULIANWANG DIGUI-105
OBJECT_ID      = 2025-285A
CENTER_NAME    = EARTH
REF_FRAME      = TEME
TIME_SYSTEM    = UTC
MEAN_ELEMENT_THEORY = SGP/SGP4

EPOCH          = 2025-12-26T15:45:37.229760
MEAN_MOTION    = 14.02426277
ECCENTRICITY   = .00081074
INCLINATION    = 50.0058
RA_OF_ASC_NODE = 60.6056
ARG_OF_PERICENTER = 331.2550
MEAN_ANOMALY   = 28.7907

EPHEMERIS_TYPE = 0
CLASSIFICATION_TYPE = U
NORAD_CAT_ID   = 66915
ELEMENT_SET_NO = 999
REV_AT_EPOCH   = 286
BSTAR          = .12781645E-3
MEAN_MOTION_DOT = .47E-6
MEAN_MOTION_DDOT = 0

