STARLINK-36059          
1 66904U 25283AC  25360.58337963 -.02027853  00000+0 -32065-1 0  9990
2 66904  53.1589   4.8901 0001089  66.2807 342.1494 15.55979670  4653
STARLINK-36075          
1 66905U 25283AD  25360.58337963 -.02029450  00000+0 -32094-1 0  9998
2 66905  53.1588   4.8867 0000914  81.6792 328.6701 15.55980600  4659
1998-067XS              
1 66906U 98067XS  25360.45387448  .00026457  00000+0  44869-3 0  9993
2 66906  51.6324  74.3703 0002647 272.6697  87.3989 15.51311404  3745
1998-067XT              
1 66907U 98067XT  25360.50352883  .00061851  00000+0  96732-3 0  9998
2 66907  51.6314  73.9516 0003815 309.8326  50.2329 15.53165234  3750
1998-067XU              
1 66908U 98067XU  25360.50238461  .00057117  00000+0  89247-3 0  9997
2 66908  51.6314  73.9431 0003859 307.9643  52.0999 15.53224138  3758
SILVERSAT               
1 66909U 98067XV  25360.50054297  .00069652  00000+0  10737-2 0  9995
2 66909  51.6312  73.9315 0003773 313.4073  46.6603 15.53512588  3752
1998-067XW              
1 66910U 98067XW  25360.62762833  .00067854  00000+0  10495-2 0  9995
2 66910  51.6299  73.2784 0003702 284.4746  75.5833 15.53433211  3770
1998-067XX              
1 66911U 98067XX  25360.49466530  .00077346  00000+0  11709-2 0  9992
2 66911  51.6301  73.8915 0003492 292.7420  67.3201 15.53969141  3745
1998-067XY              
1 66912U 98067XY  25360.50885516  .00048771  00000+0  78444-3 0  9994
2 66912  51.6314  73.9869 0003823 301.1826  58.8789 15.52489248  3742
2025-284A               
1 66913U 25284A   25357.10748193  .00008748  00000+0  55264-3 0  9992
2 66913  80.4035 116.7336 0013475 259.6514 100.3189 15.08893564  2694
2025-284B               
1 66914U 25284B   25350.28554881  .00008068  00000+0  38445-3 0  9991
2 66914  80.4045 125.2713 0008179 234.9626 125.0834 15.18985981  1668
HULIANWANG DIGUI-105    
1 66915U 25285A   25360.65668090  .00000047  00000+0  12782-3 0  9998
2 66915  50.0058  60.6056 0008107 331.2550  28.7907 14.02426277  2869
